[{"OBJECT_NAME":"STARLINK-11561 [DTC]","OBJECT_ID":"2025-027B","EPOCH":"2025-12-24T14:08:10.514112","MEAN_MOTION":15.70896853,"ECCENTRICITY":0.00010091,"INCLINATION":42.9986,"RA_OF_ASC_NODE":80.0895,"ARG_OF_PERICENTER":302.0315,"MEAN_ANOMALY":58.0455,"EPHEMERIS_TYPE":0,"CLASSIFICATION_TYPE":"U","NORAD_CAT_ID":62908,"ELEMENT_SET_NO":999,"REV_AT_EPOCH":5134,"BSTAR":0.0017126563,"MEAN_MOTION_DOT":0.00225925,"MEAN_MOTION_DDOT":0},{"OBJECT_NAME":"STARLINK-11567 [DTC]","OBJECT_ID":"2025-027C","EPOCH":"2025-12-24T15:09:20.060352","MEAN_MOTION":15.70941375,"ECCENTRICITY":0.00020865,"INCLINATION":42.9999,"RA_OF_ASC_NODE":80.4305,"ARG_OF_PERICENTER":286.2356,"MEAN_ANOMALY":73.8283,"EPHEMERIS_TYPE":0,"CLASSIFICATION_TYPE":"U","NORAD_CAT_ID":62909,"ELEMENT_SET_NO":999,"REV_AT_EPOCH":5134,"BSTAR":0.0021688395,"MEAN_MOTION_DOT":0.00288966,"MEAN_MOTION_DDOT":0},{"OBJECT_NAME":"STARLINK-11569 [DTC]","OBJECT_ID":"2025-027D","EPOCH":"2025-12-24T15:55:01.042464","MEAN_MOTION":15.70881589,"ECCENTRICITY":0.00026022,"INCLINATION":43.0009,"RA_OF_ASC_NODE":79.7914,"ARG_OF_PERICENTER":283.2223,"MEAN_ANOMALY":76.8355,"EPHEMERIS_TYPE":0,"CLASSIFICATION_TYPE":"U","NORAD_CAT_ID":62910,"ELEMENT_SET_NO":999,"REV_AT_EPOCH":5135,"BSTAR":0.001648968,"MEAN_MOTION_DOT":0.00217146,"MEAN_MOTION_DDOT":0},{"OBJECT_NAME":"STARLINK-11537 [DTC]","OBJECT_ID":"2025-027E","EPOCH":"2025-12-24T14:38:45.128256","MEAN_MOTION":15.70912977,"ECCENTRICITY":0.00019351,"INCLINATION":42.9994,"RA_OF_ASC_NODE":80.2589,"ARG_OF_PERICENTER":293.4368,"MEAN_ANOMALY":66.6296,"EPHEMERIS_TYPE":0,"CLASSIFICATION_TYPE":"U","NORAD_CAT_ID":62911,"ELEMENT_SET_NO":999,"REV_AT_EPOCH":5138,"BSTAR":0.0017228457,"MEAN_MOTION_DOT":0.0022747,"MEAN_MOTION_DDOT":0},{"OBJECT_NAME":"STARLINK-11565 [DTC]","OBJECT_ID":"2025-027F","EPOCH":"2025-12-24T12:21:18.980064","MEAN_MOTION":15.70912665,"ECCENTRICITY":0.0001359,"INCLINATION":43.0008,"RA_OF_ASC_NODE":80.384,"ARG_OF_PERICENTER":252.6037,"MEAN_ANOMALY":107.4682,"EPHEMERIS_TYPE":0,"CLASSIFICATION_TYPE":"U","NORAD_CAT_ID":62912,"ELEMENT_SET_NO":999,"REV_AT_EPOCH":5133,"BSTAR":0.001456238,"MEAN_MOTION_DOT":0.00191353,"MEAN_MOTION_DDOT":0},{"OBJECT_NAME":"STARLINK-11564 [DTC]","OBJECT_ID":"2025-027G","EPOCH":"2025-12-24T14:54:02.317824","MEAN_MOTION":15.70888223,"ECCENTRICITY":0.00012206,"INCLINATION":42.9995,"RA_OF_ASC_NODE":80.3434,"ARG_OF_PERICENTER":269.7898,"MEAN_ANOMALY":90.283,"EPHEMERIS_TYPE":0,"CLASSIFICATION_TYPE":"U","NORAD_CAT_ID":62913,"ELEMENT_SET_NO":999,"REV_AT_EPOCH":5134,"BSTAR":0.0012557951,"MEAN_MOTION_DOT":0.00164241,"MEAN_MOTION_DDOT":0},{"OBJECT_NAME":"STARLINK-11566 [DTC]","OBJECT_ID":"2025-027H","EPOCH":"2025-12-24T13:30:06.958656","MEAN_MOTION":15.70958997,"ECCENTRICITY":0.00057223,"INCLINATION":43.0064,"RA_OF_ASC_NODE":80.7739,"ARG_OF_PERICENTER":292.8461,"MEAN_ANOMALY":67.1803,"EPHEMERIS_TYPE":0,"CLASSIFICATION_TYPE":"U","NORAD_CAT_ID":62914,"ELEMENT_SET_NO":999,"REV_AT_EPOCH":5137,"BSTAR":0.0017468522,"MEAN_MOTION_DOT":0.0023133,"MEAN_MOTION_DDOT":0},{"OBJECT_NAME":"STARLINK-11555 [DTC]","OBJECT_ID":"2025-027J","EPOCH":"2025-12-24T05:53:38.634720","MEAN_MOTION":15.70889833,"ECCENTRICITY":0.00022034,"INCLINATION":42.9996,"RA_OF_ASC_NODE":82.692,"ARG_OF_PERICENTER":310.5807,"MEAN_ANOMALY":49.4869,"EPHEMERIS_TYPE":0,"CLASSIFICATION_TYPE":"U","NORAD_CAT_ID":62915,"ELEMENT_SET_NO":999,"REV_AT_EPOCH":5132,"BSTAR":0.0017091387,"MEAN_MOTION_DOT":0.00225383,"MEAN_MOTION_DDOT":0},{"OBJECT_NAME":"STARLINK-11430 [DTC]","OBJECT_ID":"2025-027K","EPOCH":"2025-12-24T07:39:12.191904","MEAN_MOTION":15.70921333,"ECCENTRICITY":0.00019195,"INCLINATION":42.9995,"RA_OF_ASC_NODE":82.3864,"ARG_OF_PERICENTER":272.4499,"MEAN_ANOMALY":87.6149,"EPHEMERIS_TYPE":0,"CLASSIFICATION_TYPE":"U","NORAD_CAT_ID":62916,"ELEMENT_SET_NO":999,"REV_AT_EPOCH":5133,"BSTAR":0.0018888973,"MEAN_MOTION_DOT":0.00250216,"MEAN_MOTION_DDOT":0},{"OBJECT_NAME":"STARLINK-11560 [DTC]","OBJECT_ID":"2025-027L","EPOCH":"2025-12-24T22:08:54.806784","MEAN_MOTION":15.70908198,"ECCENTRICITY":7.035e-5,"INCLINATION":42.9988,"RA_OF_ASC_NODE":78.297,"ARG_OF_PERICENTER":352.3082,"MEAN_ANOMALY":7.7775,"EPHEMERIS_TYPE":0,"CLASSIFICATION_TYPE":"U","NORAD_CAT_ID":62917,"ELEMENT_SET_NO":999,"REV_AT_EPOCH":5139,"BSTAR":0.002190891,"MEAN_MOTION_DOT":0.00291604,"MEAN_MOTION_DDOT":0},{"OBJECT_NAME":"STARLINK-11562 [DTC]","OBJECT_ID":"2025-027M","EPOCH":"2025-12-23T09:16:10.869024","MEAN_MOTION":15.7089689,"ECCENTRICITY":0.00011181,"INCLINATION":42.9994,"RA_OF_ASC_NODE":87.41,"ARG_OF_PERICENTER":276.0685,"MEAN_ANOMALY":84.0056,"EPHEMERIS_TYPE":0,"CLASSIFICATION_TYPE":"U","NORAD_CAT_ID":62918,"ELEMENT_SET_NO":999,"REV_AT_EPOCH":5119,"BSTAR":0.0015417431,"MEAN_MOTION_DOT":0.00202762,"MEAN_MOTION_DDOT":0},{"OBJECT_NAME":"STARLINK-11457 [DTC]","OBJECT_ID":"2025-027N","EPOCH":"2025-12-24T14:00:31.626432","MEAN_MOTION":15.70966425,"ECCENTRICITY":0.00014692,"INCLINATION":42.9991,"RA_OF_ASC_NODE":80.0401,"ARG_OF_PERICENTER":305.4903,"MEAN_ANOMALY":54.5827,"EPHEMERIS_TYPE":0,"CLASSIFICATION_TYPE":"U","NORAD_CAT_ID":62919,"ELEMENT_SET_NO":999,"REV_AT_EPOCH":5134,"BSTAR":0.0026992438,"MEAN_MOTION_DOT":0.00363407,"MEAN_MOTION_DDOT":0},{"OBJECT_NAME":"STARLINK-32921","OBJECT_ID":"2025-027P","EPOCH":"2025-12-24T19:42:05.392800","MEAN_MOTION":15.27582752,"ECCENTRICITY":0.00017041,"INCLINATION":42.9995,"RA_OF_ASC_NODE":191.5573,"ARG_OF_PERICENTER":275.023,"MEAN_ANOMALY":85.0427,"EPHEMERIS_TYPE":0,"CLASSIFICATION_TYPE":"U","NORAD_CAT_ID":62920,"ELEMENT_SET_NO":999,"REV_AT_EPOCH":5009,"BSTAR":0.001056119,"MEAN_MOTION_DOT":0.00028917,"MEAN_MOTION_DDOT":0},{"OBJECT_NAME":"STARLINK-32917","OBJECT_ID":"2025-027Q","EPOCH":"2025-12-24T20:02:26.834784","MEAN_MOTION":15.27608746,"ECCENTRICITY":0.00012539,"INCLINATION":42.9992,"RA_OF_ASC_NODE":191.6588,"ARG_OF_PERICENTER":271.3437,"MEAN_ANOMALY":88.7271,"EPHEMERIS_TYPE":0,"CLASSIFICATION_TYPE":"U","NORAD_CAT_ID":62921,"ELEMENT_SET_NO":999,"REV_AT_EPOCH":5009,"BSTAR":0.00078846281,"MEAN_MOTION_DOT":0.00021517,"MEAN_MOTION_DDOT":0},{"OBJECT_NAME":"STARLINK-32916","OBJECT_ID":"2025-027R","EPOCH":"2025-12-24T19:47:38.477760","MEAN_MOTION":15.27593619,"ECCENTRICITY":0.00013711,"INCLINATION":42.9976,"RA_OF_ASC_NODE":191.578,"ARG_OF_PERICENTER":265.7992,"MEAN_ANOMALY":94.2703,"EPHEMERIS_TYPE":0,"CLASSIFICATION_TYPE":"U","NORAD_CAT_ID":62922,"ELEMENT_SET_NO":999,"REV_AT_EPOCH":5009,"BSTAR":0.00075450966,"MEAN_MOTION_DOT":0.00020567,"MEAN_MOTION_DDOT":0},{"OBJECT_NAME":"STARLINK-32905","OBJECT_ID":"2025-027S","EPOCH":"2025-12-24T14:02:28.167072","MEAN_MOTION":15.27593483,"ECCENTRICITY":0.00015084,"INCLINATION":43.0001,"RA_OF_ASC_NODE":193.2264,"ARG_OF_PERICENTER":274.7684,"MEAN_ANOMALY":85.2995,"EPHEMERIS_TYPE":0,"CLASSIFICATION_TYPE":"U","NORAD_CAT_ID":62923,"ELEMENT_SET_NO":999,"REV_AT_EPOCH":5005,"BSTAR":0.00085803811,"MEAN_MOTION_DOT":0.00023434,"MEAN_MOTION_DDOT":0}]
