STARLINK-11561 [DTC]    
1 62908U 25027B   25358.58901058  .00225925  00000+0  17127-2 0  9994
2 62908  42.9986  80.0895 0001009 302.0315  58.0455 15.70896853 51341
STARLINK-11567 [DTC]    
1 62909U 25027C   25358.63148218  .00288966  00000+0  21688-2 0  9993
2 62909  42.9999  80.4305 0002086 286.2356  73.8283 15.70941375 51344
STARLINK-11569 [DTC]    
1 62910U 25027D   25358.66320651  .00217146  00000+0  16490-2 0  9998
2 62910  43.0009  79.7914 0002602 283.2223  76.8355 15.70881589 51355
STARLINK-11537 [DTC]    
1 62911U 25027E   25358.61024454  .00227470  00000+0  17228-2 0  9997
2 62911  42.9994  80.2589 0001935 293.4368  66.6296 15.70912977 51383
STARLINK-11565 [DTC]    
1 62912U 25027F   25358.51480301  .00191353  00000+0  14562-2 0  9992
2 62912  43.0008  80.3840 0001359 252.6037 107.4682 15.70912665 51335
STARLINK-11564 [DTC]    
1 62913U 25027G   25358.62086016  .00164241  00000+0  12558-2 0  9999
2 62913  42.9995  80.3434 0001220 269.7898  90.2830 15.70888223 51346
STARLINK-11566 [DTC]    
1 62914U 25027H   25358.56258054  .00231330  00000+0  17469-2 0  9996
2 62914  43.0064  80.7739 0005722 292.8461  67.1803 15.70958997 51374
STARLINK-11555 [DTC]    
1 62915U 25027J   25358.24558605  .00225383  00000+0  17091-2 0  9999
2 62915  42.9996  82.6920 0002203 310.5807  49.4869 15.70889833 51325
STARLINK-11430 [DTC]    
1 62916U 25027K   25358.31889111  .00250216  00000+0  18889-2 0  9996
2 62916  42.9995  82.3864 0001919 272.4499  87.6149 15.70921333 51333
STARLINK-11560 [DTC]    
1 62917U 25027L   25358.92285656  .00291604  00000+0  21909-2 0  9991
2 62917  42.9988  78.2970 0000703 352.3082   7.7775 15.70908198 51392
STARLINK-11562 [DTC]    
1 62918U 25027M   25357.38623691  .00202762  00000+0  15417-2 0  9990
2 62918  42.9994  87.4100 0001118 276.0685  84.0056 15.70896890 51192
STARLINK-11457 [DTC]    
1 62919U 25027N   25358.58369938  .00363407  00000+0  26992-2 0  9999
2 62919  42.9991  80.0401 0001469 305.4903  54.5827 15.70966425 51349
STARLINK-32921          
1 62920U 25027P   25358.82089575  .00028917  00000+0  10561-2 0  9993
2 62920  42.9995 191.5573 0001704 275.0230  85.0427 15.27582752 50095
STARLINK-32917          
1 62921U 25027Q   25358.83503281  .00021517  00000+0  78846-3 0  9990
2 62921  42.9992 191.6588 0001253 271.3437  88.7271 15.27608746 50096
STARLINK-32916          
1 62922U 25027R   25358.82475090  .00020567  00000+0  75451-3 0  9999
2 62922  42.9976 191.5780 0001371 265.7992  94.2703 15.27593619 50090
STARLINK-32905          
1 62923U 25027S   25358.58504823  .00023434  00000+0  85804-3 0  9999
2 62923  43.0001 193.2264 0001508 274.7684  85.2995 15.27593483 50056
